<?xml version='1.0' encoding='UTF-8'?>
<gpx xmlns="http://www.topografix.com/GPX/1/1" xmlns:xsi="http://www.w3.org/2001/XMLSchema-instance" version="1.1" creator="Carto 0.4.0" xsi:schemaLocation="http://www.topografix.com/GPX/1/1 http://www.topografix.com/GPX/1/1/gpx.xsd">
    <metadata>
        <name>Nouvelle trace2</name>
        <bounds minlat="48.950126426" minlon="1.412650196" maxlat="48.961511132" maxlon="1.427928203" />
    </metadata>
    <trk>
        <name>Nouvelle trace2</name>
        <trkseg>
            <trkpt lat="48.951507383" lon="1.418225708" />
            <trkpt lat="48.952423303" lon="1.421853411" />
            <trkpt lat="48.952930574" lon="1.422626176" />
            <trkpt lat="48.954550990" lon="1.427928203" />
            <trkpt lat="48.961511132" lon="1.424799781" />
            <trkpt lat="48.959876854" lon="1.417801964" />
            <trkpt lat="48.959313298" lon="1.413551756" />
            <trkpt lat="48.959172407" lon="1.412650196" />
            <trkpt lat="48.953198299" lon="1.416771610" />
            <trkpt lat="48.952240120" lon="1.414453315" />
            <trkpt lat="48.950492806" lon="1.415526600" />
            <trkpt lat="48.950126426" lon="1.416041777" />
            <trkpt lat="48.950239159" lon="1.417286787" />
            <trkpt lat="48.950239159" lon="1.417286787" />
        </trkseg>
    </trk>
</gpx>